UMBRA-07                
1 58297U 23174AT  26204.16811497  .00010778  00000+0  67169-3 0  9993
2 58297  97.3775 258.5781 0001432 337.2149  22.9017 15.09722583148844
UMBRA-09                
1 60541U 24149CB  26204.50642094  .00016444  00000+0  78713-3 0  9997
2 60541  97.6968 292.3595 0002156 184.1579 175.9637 15.19041217106238
UMBRA-10                
1 60547U 24149CH  26204.70358792  .00016966  00000+0  81168-3 0  9991
2 60547  97.6971 292.5913 0002159 151.5750 208.5602 15.19051522106275
UMBRA-11                
1 66748U 25276CL  26204.15756170  .00022872  00000+0  83778-3 0  9995
2 66748  97.4181 278.5960 0003310 165.5406 194.5929 15.28018804 35985
UMBRA-12                
1 67371U 26004J   26204.45146693  .00004116  00000+0  43683-3 0  9996
2 67371  97.8032 202.7271 0006716  29.9235 330.2366 14.89582160 28700
