{"fetched_at":"2026-07-24T07:06:57.299Z","source":"https://celestrak.org/NORAD/elements/gp.php?NAME=UMBRA&FORMAT=JSON","constellation":"umbra","records":[{"OBJECT_NAME":"UMBRA-07","OBJECT_ID":"2023-174AT","EPOCH":"2026-07-23T04:02:05.133408","CLASSIFICATION_TYPE":"U","MEAN_MOTION":15.09722583,"ECCENTRICITY":0.0001432,"INCLINATION":97.3775,"RA_OF_ASC_NODE":258.5781,"ARG_OF_PERICENTER":337.2149,"MEAN_ANOMALY":22.9017,"EPHEMERIS_TYPE":0,"NORAD_CAT_ID":58297,"ELEMENT_SET_NO":999,"REV_AT_EPOCH":14884,"BSTAR":0.00067169,"MEAN_MOTION_DOT":0.00010778,"MEAN_MOTION_DDOT":0},{"OBJECT_NAME":"UMBRA-09","OBJECT_ID":"2024-149CB","EPOCH":"2026-07-23T12:09:14.769216","CLASSIFICATION_TYPE":"U","MEAN_MOTION":15.19041217,"ECCENTRICITY":0.0002156,"INCLINATION":97.6968,"RA_OF_ASC_NODE":292.3595,"ARG_OF_PERICENTER":184.1579,"MEAN_ANOMALY":175.9637,"EPHEMERIS_TYPE":0,"NORAD_CAT_ID":60541,"ELEMENT_SET_NO":999,"REV_AT_EPOCH":10623,"BSTAR":0.00078713,"MEAN_MOTION_DOT":0.00016444,"MEAN_MOTION_DDOT":0},{"OBJECT_NAME":"UMBRA-10","OBJECT_ID":"2024-149CH","EPOCH":"2026-07-23T16:53:09.996288","CLASSIFICATION_TYPE":"U","MEAN_MOTION":15.19051522,"ECCENTRICITY":0.0002159,"INCLINATION":97.6971,"RA_OF_ASC_NODE":292.5913,"ARG_OF_PERICENTER":151.575,"MEAN_ANOMALY":208.5602,"EPHEMERIS_TYPE":0,"NORAD_CAT_ID":60547,"ELEMENT_SET_NO":999,"REV_AT_EPOCH":10627,"BSTAR":0.00081168,"MEAN_MOTION_DOT":0.00016966,"MEAN_MOTION_DDOT":0},{"OBJECT_NAME":"UMBRA-11","OBJECT_ID":"2025-276CL","EPOCH":"2026-07-23T03:46:53.330880","CLASSIFICATION_TYPE":"U","MEAN_MOTION":15.28018804,"ECCENTRICITY":0.00033103,"INCLINATION":97.4181,"RA_OF_ASC_NODE":278.596,"ARG_OF_PERICENTER":165.5406,"MEAN_ANOMALY":194.5929,"EPHEMERIS_TYPE":0,"NORAD_CAT_ID":66748,"ELEMENT_SET_NO":999,"REV_AT_EPOCH":3598,"BSTAR":0.00083777656,"MEAN_MOTION_DOT":0.00022872,"MEAN_MOTION_DDOT":0},{"OBJECT_NAME":"UMBRA-12","OBJECT_ID":"2026-004J","EPOCH":"2026-07-23T10:50:06.742752","CLASSIFICATION_TYPE":"U","MEAN_MOTION":14.8958216,"ECCENTRICITY":0.00067163,"INCLINATION":97.8032,"RA_OF_ASC_NODE":202.7271,"ARG_OF_PERICENTER":29.9235,"MEAN_ANOMALY":330.2366,"EPHEMERIS_TYPE":0,"NORAD_CAT_ID":67371,"ELEMENT_SET_NO":999,"REV_AT_EPOCH":2870,"BSTAR":0.0004368292,"MEAN_MOTION_DOT":0.00004116,"MEAN_MOTION_DDOT":0}]}
